{"type": "FeatureCollection", "features": [ {"type": "Feature", "properties": {"norad_id": 66495, "name": "STARLINK-35832", "group": "last-30-days", "lat": 26.86044176772952, "lon": 163.58936858580546, "alt_km": 411.8531269378973, "timestamp": "2025-12-11T18:59:44.809739+00:00", "meta": {"OBJECT_NAME": "STARLINK-35832", "OBJECT_ID": "2025-263L", "EPOCH": "2025-12-11T06:00:02.999808", "MEAN_MOTION": 15.50603336, "ECCENTRICITY": 0.00016043, "INCLINATION": 43.0007, "RA_OF_ASC_NODE": 133.8357, "ARG_OF_PERICENTER": 248.9635, "MEAN_ANOMALY": 6.5452, "EPHEMERIS_TYPE": 0, "CLASSIFICATION_TYPE": "U", "NORAD_CAT_ID": 66495, "ELEMENT_SET_NO": 999, "REV_AT_EPOCH": 539, "BSTAR": -0.00115783, "MEAN_MOTION_DOT": -0.0006774, "MEAN_MOTION_DDOT": 0}, "tle": {"line1": "1 66495U 25263L   25345.25003472 -.00067740  00000+0 -11578-2 0  9999", "line2": "2 66495  43.0007 133.8357 0001604 248.9635   6.5452 15.50603336  5395"}}, "geometry": {"type": "Point", "coordinates": [163.58936858580546, 26.86044176772952]}}, {"type": "Feature", "properties": {"norad_id": 66496, "name": "STARLINK-35909", "group": "last-30-days", "lat": 27.94605151373497, "lon": 165.3634170571402, "alt_km": 411.59570899858136, "timestamp": "2025-12-11T18:59:44.809749+00:00", "meta": {"OBJECT_NAME": "STARLINK-35909", "OBJECT_ID": "2025-263M", "EPOCH": "2025-12-11T06:00:02.999808", "MEAN_MOTION": 15.5060237, "ECCENTRICITY": 0.00015038, "INCLINATION": 43.0006, "RA_OF_ASC_NODE": 133.8305, "ARG_OF_PERICENTER": 254.0932, "MEAN_ANOMALY": 3.3337, "EPHEMERIS_TYPE": 0, "CLASSIFICATION_TYPE": "U", "NORAD_CAT_ID": 66496, "ELEMENT_SET_NO": 999, "REV_AT_EPOCH": 539, "BSTAR": -0.0011883767, "MEAN_MOTION_DOT": -0.000695, "MEAN_MOTION_DDOT": 0}, "tle": {"line1": "1 66496U 25263M   25345.25003472 -.00069500  00000+0 -11884-2 0  9996", "line2": "2 66496  43.0006 133.8305 0001503 254.0932   3.3337 15.50602370  5398"}}, "geometry": {"type": "Point", "coordinates": [165.3634170571402, 27.94605151373497]}}, {"type": "Feature", "properties": {"norad_id": 66497, "name": "STARLINK-35899", "group": "last-30-days", "lat": 29.01357860775777, "lon": 167.18226786058668, "alt_km": 411.34426818341944, "timestamp": "2025-12-11T18:59:44.809759+00:00", "meta": {"OBJECT_NAME": "STARLINK-35899", "OBJECT_ID": "2025-263N", "EPOCH": "2025-12-11T06:00:02.999808", "MEAN_MOTION": 15.50610511, "ECCENTRICITY": 0.00015316, "INCLINATION": 43.0007, "RA_OF_ASC_NODE": 133.8255, "ARG_OF_PERICENTER": 264.3901, "MEAN_ANOMALY": 354.9509, "EPHEMERIS_TYPE": 0, "CLASSIFICATION_TYPE": "U", "NORAD_CAT_ID": 66497, "ELEMENT_SET_NO": 999, "REV_AT_EPOCH": 539, "BSTAR": -0.0013211844, "MEAN_MOTION_DOT": -0.00077176, "MEAN_MOTION_DDOT": 0}, "tle": {"line1": "1 66497U 25263N   25345.25003472 -.00077176  00000+0 -13212-2 0  9992", "line2": "2 66497  43.0007 133.8255 0001531 264.3901 354.9509 15.50610511  5397"}}, "geometry": {"type": "Point", "coordinates": [167.18226786058668, 29.01357860775777]}}, {"type": "Feature", "properties": {"norad_id": 66498, "name": "STARLINK-35907", "group": "last-30-days", "lat": -3.367403086713063, "lon": 127.15951507334336, "alt_km": 445.3696222908284, "timestamp": "2025-12-11T18:59:44.809786+00:00", "meta": {"OBJECT_NAME": "STARLINK-35907", "OBJECT_ID": "2025-263P", "EPOCH": "2025-12-11T06:00:02.999808", "MEAN_MOTION": 15.41025874, "ECCENTRICITY": 0.00013159, "INCLINATION": 43.0007, "RA_OF_ASC_NODE": 133.9004, "ARG_OF_PERICENTER": 261.2035, "MEAN_ANOMALY": 327.2172, "EPHEMERIS_TYPE": 0, "CLASSIFICATION_TYPE": "U", "NORAD_CAT_ID": 66498, "ELEMENT_SET_NO": 999, "REV_AT_EPOCH": 539, "BSTAR": -0.015743867, "MEAN_MOTION_DOT": -0.00614172, "MEAN_MOTION_DDOT": 0}, "tle": {"line1": "1 66498U 25263P   25345.25003472 -.00614172  00000+0 -15744-1 0  9997", "line2": "2 66498  43.0007 133.9004 0001315 261.2035 327.2172 15.41025874  5396"}}, "geometry": {"type": "Point", "coordinates": [127.15951507334336, -3.367403086713063]}}, {"type": "Feature", "properties": {"norad_id": 66499, "name": "STARLINK-35816", "group": "last-30-days", "lat": 19.87490968990352, "lon": 153.52111504838481, "alt_km": 433.64976286521323, "timestamp": "2025-12-11T18:59:44.809802+00:00", "meta": {"OBJECT_NAME": "STARLINK-35816", "OBJECT_ID": "2025-263Q", "EPOCH": "2025-12-11T06:00:02.999808", "MEAN_MOTION": 15.45729064, "ECCENTRICITY": 0.00012731, "INCLINATION": 43.0009, "RA_OF_ASC_NODE": 133.8345, "ARG_OF_PERICENTER": 261.8937, "MEAN_ANOMALY": 353.8429, "EPHEMERIS_TYPE": 0, "CLASSIFICATION_TYPE": "U", "NORAD_CAT_ID": 66499, "ELEMENT_SET_NO": 999, "REV_AT_EPOCH": 539, "BSTAR": -0.046491304, "MEAN_MOTION_DOT": -0.02047069, "MEAN_MOTION_DDOT": 0}, "tle": {"line1": "1 66499U 25263Q   25345.25003472 -.02047069  00000+0 -46491-1 0  9998", "line2": "2 66499  43.0009 133.8345 0001273 261.8937 353.8429 15.45729064  5392"}}, "geometry": {"type": "Point", "coordinates": [153.52111504838481, 19.87490968990352]}}, {"type": "Feature", "properties": {"norad_id": 66500, "name": "STARLINK-35894", "group": "last-30-days", "lat": -20.06068283248122, "lon": 107.7720016327135, "alt_km": 441.7985963983665, "timestamp": "2025-12-11T18:59:44.809813+00:00", "meta": {"OBJECT_NAME": "STARLINK-35894", "OBJECT_ID": "2025-263R", "EPOCH": "2025-12-11T06:00:02.999808", "MEAN_MOTION": 15.43995435, "ECCENTRICITY": 0.00013677, "INCLINATION": 43.0003, "RA_OF_ASC_NODE": 133.9743, "ARG_OF_PERICENTER": 270.4192, "MEAN_ANOMALY": 288.3155, "EPHEMERIS_TYPE": 0, "CLASSIFICATION_TYPE": "U", "NORAD_CAT_ID": 66500, "ELEMENT_SET_NO": 999, "REV_AT_EPOCH": 539, "BSTAR": -0.043437263, "MEAN_MOTION_DOT": -0.01825778, "MEAN_MOTION_DDOT": 0}, "tle": {"line1": "1 66500U 25263R   25345.25003472 -.01825778  00000+0 -43437-1 0  9998", "line2": "2 66500  43.0003 133.9743 0001367 270.4192 288.3155 15.43995435  5398"}}, "geometry": {"type": "Point", "coordinates": [107.7720016327135, -20.06068283248122]}}, {"type": "Feature", "properties": {"norad_id": 66501, "name": "STARLINK-35897", "group": "last-30-days", "lat": 29.035020968386146, "lon": 167.21941885900713, "alt_km": 424.1732116129515, "timestamp": "2025-12-11T18:59:44.809827+00:00", "meta": {"OBJECT_NAME": "STARLINK-35897", "OBJECT_ID": "2025-263S", "EPOCH": "2025-12-11T06:00:02.999808", "MEAN_MOTION": 15.48645119, "ECCENTRICITY": 0.00015922, "INCLINATION": 43.0004, "RA_OF_ASC_NODE": 133.8097, "ARG_OF_PERICENTER": 258.7209, "MEAN_ANOMALY": 6.809, "EPHEMERIS_TYPE": 0, "CLASSIFICATION_TYPE": "U", "NORAD_CAT_ID": 66501, "ELEMENT_SET_NO": 999, "REV_AT_EPOCH": 539, "BSTAR": -0.042526184, "MEAN_MOTION_DOT": -0.02071313, "MEAN_MOTION_DDOT": 0}, "tle": {"line1": "1 66501U 25263S   25345.25003472 -.02071313  00000+0 -42526-1 0  9996", "line2": "2 66501  43.0004 133.8097 0001592 258.7209   6.8090 15.48645119  5396"}}, "geometry": {"type": "Point", "coordinates": [167.21941885900713, 29.035020968386146]}}, {"type": "Feature", "properties": {"norad_id": 66502, "name": "STARLINK-35922", "group": "last-30-days", "lat": 35.664915121360515, "lon": -179.01222730877637, "alt_km": 410.34556775424153, "timestamp": "2025-12-11T18:59:44.809838+00:00", "meta": {"OBJECT_NAME": "STARLINK-35922", "OBJECT_ID": "2025-263T", "EPOCH": "2025-12-11T06:00:02.999808", "MEAN_MOTION": 15.50607268, "ECCENTRICITY": 0.00014901, "INCLINATION": 43.0006, "RA_OF_ASC_NODE": 133.7914, "ARG_OF_PERICENTER": 267.1558, "MEAN_ANOMALY": 5.6017, "EPHEMERIS_TYPE": 0, "CLASSIFICATION_TYPE": "U", "NORAD_CAT_ID": 66502, "ELEMENT_SET_NO": 999, "REV_AT_EPOCH": 539, "BSTAR": -0.0011615988, "MEAN_MOTION_DOT": -0.00067967, "MEAN_MOTION_DDOT": 0}, "tle": {"line1": "1 66502U 25263T   25345.25003472 -.00067967  00000+0 -11616-2 0  9992", "line2": "2 66502  43.0006 133.7914 0001490 267.1558   5.6017 15.50607268  5396"}}, "geometry": {"type": "Point", "coordinates": [-179.01222730877637, 35.664915121360515]}}, {"type": "Feature", "properties": {"norad_id": 66503, "name": "STARLINK-35917", "group": "last-30-days", "lat": 37.19845765643164, "lon": -174.84765551704928, "alt_km": 411.0785564855714, "timestamp": "2025-12-11T18:59:44.809848+00:00", "meta": {"OBJECT_NAME": "STARLINK-35917", "OBJECT_ID": "2025-263U", "EPOCH": "2025-12-11T06:00:02.999808", "MEAN_MOTION": 15.50696925, "ECCENTRICITY": 0.00018381, "INCLINATION": 43.0004, "RA_OF_ASC_NODE": 133.7821, "ARG_OF_PERICENTER": 261.5528, "MEAN_ANOMALY": 15.0229, "EPHEMERIS_TYPE": 0, "CLASSIFICATION_TYPE": "U", "NORAD_CAT_ID": 66503, "ELEMENT_SET_NO": 999, "REV_AT_EPOCH": 539, "BSTAR": -0.0061073809, "MEAN_MOTION_DOT": -0.0034478, "MEAN_MOTION_DDOT": 0}, "tle": {"line1": "1 66503U 25263U   25345.25003472 -.00344780  00000+0 -61074-2 0  9997", "line2": "2 66503  43.0004 133.7821 0001838 261.5528  15.0229 15.50696925  5391"}}, "geometry": {"type": "Point", "coordinates": [-174.84765551704928, 37.19845765643164]}}, {"type": "Feature", "properties": {"norad_id": 66504, "name": "STARLINK-35916", "group": "last-30-days", "lat": 0.9324019782290157, "lon": -48.90433094422341, "alt_km": 443.71465582121346, "timestamp": "2025-12-11T18:59:44.809859+00:00", "meta": {"OBJECT_NAME": "STARLINK-35916", "OBJECT_ID": "2025-263V", "EPOCH": "2025-12-11T02:39:58.353120", "MEAN_MOTION": 15.40717379, "ECCENTRICITY": 0.00015168, "INCLINATION": 42.9999, "RA_OF_ASC_NODE": 136.0186, "ARG_OF_PERICENTER": 285.0146, "MEAN_ANOMALY": 75.0543, "EPHEMERIS_TYPE": 0, "CLASSIFICATION_TYPE": "U", "NORAD_CAT_ID": 66504, "ELEMENT_SET_NO": 999, "REV_AT_EPOCH": 529, "BSTAR": 0.0017331304, "MEAN_MOTION_DOT": 0.0007283, "MEAN_MOTION_DDOT": 0}, "tle": {"line1": "1 66504U 25263V   25345.11109205  .00072830  00000+0  17331-2 0  9993", "line2": "2 66504  42.9999 136.0186 0001516 285.0146  75.0543 15.40717379  5293"}}, "geometry": {"type": "Point", "coordinates": [-48.90433094422341, 0.9324019782290157]}}]}